0 IRIDIUM 133
1 42955U 17061A   19081.43262242  .00000062  00000-0  15056-4 0  9993
2 42955  86.3974  50.0097 0002702  79.8854 280.2647 14.34217968 75845
0 IRIDIUM 100
1 42956U 17061B   19081.42627098  .00000062  00000-0  15206-4 0  9994
2 42956  86.3972  49.9942 0002155  85.0877 275.0565 14.34219415 75868
0 IRIDIUM 122
1 42957U 17061C   19081.46433960  .00000062  00000-0  15119-4 0  9995
2 42957  86.3973  49.9735 0002857  74.0517 286.0994 14.34217878 75856
0 IRIDIUM 129
1 42958U 17061D   19081.41994319  .00000063  00000-0  15435-4 0  9993
2 42958  86.3974  50.0300 0002606  79.5479 280.6011 14.34217475 75862
0 IRIDIUM 119
1 42959U 17061E   19081.45798897  .00000049  00000-0  10351-4 0  9997
2 42959  86.3973  49.9967 0002690  82.3385 277.8116 14.34215793 75886
0 IRIDIUM 107
1 42960U 17061F   19081.40724812  .00000062  00000-0  14988-4 0  9995
2 42960  86.3974  50.0228 0002217  82.8357 277.3091 14.34219303 75890
0 IRIDIUM 132
1 42961U 17061G   19081.41358961  .00000068  00000-0  17231-4 0  9995
2 42961  86.3973  50.0134 0002160  74.9245 285.2189 14.34215537 75881
0 IRIDIUM 136
1 42962U 17061H   19081.44530641  .00000070  00000-0  17920-4 0  9994
2 42962  86.3974  49.9994 0002684  85.6471 274.5032 14.34219253 75905
0 IRIDIUM 139
1 42963U 17061J   19081.45164768  .00000049  00000-0  10464-4 0  9991
2 42963  86.3975  50.0159 0002317  80.9772 279.1686 14.34215935 75918
0 IRIDIUM 125
1 42964U 17061K   19081.43895769  .00000042  00000-0  78274-5 0  9999
2 42964  86.3976  50.0345 0002245  82.8996 277.2455 14.34215731 75924
0 IRIDIUM 135
1 43070U 17083A   19081.27353711  .00000093  00000-0  26219-4 0  9997
2 43070  86.4011 346.9060 0001713  95.7566 264.3825 14.34220540 65190
0 IRIDIUM 138
1 43071U 17083B   19081.36869324  .00000093  00000-0  26300-4 0  9991
2 43071  86.4001 346.8229 0002301  82.4166 277.7291 14.34218103 65196
0 IRIDIUM 116
1 43072U 17083C   19081.26720509  .00000088  00000-0  24492-4 0  9996
2 43072  86.4010 346.9255 0002265  92.3581 267.7874 14.34215777 65210
0 IRIDIUM 130
1 43073U 17083D   19081.44481572  .00000086  00000-0  23544-4 0  9996
2 43073  86.4018 346.8667 0002298  85.5557 274.5901 14.34218389 65183
0 IRIDIUM 151
1 43074U 17083E   19081.41944180  .00000081  00000-0  21856-4 0  9992
2 43074  86.4011 346.8588 0002342  95.1013 265.0450 14.34217302 65204
0 IRIDIUM 134
1 43075U 17083F   19081.24818229  .00000091  00000-0  25510-4 0  9990
2 43075  86.4012 346.9009 0001928  77.9048 282.2363 14.34218990 65141
0 IRIDIUM 137
1 43076U 17083G   19081.26086932  .00000091  00000-0  25382-4 0  9998
2 43076  86.4014 346.9409 0002423  97.2180 262.9291 14.34218017 65214
0 IRIDIUM 141
1 43077U 17083H   19081.25452591  .00000091  00000-0  25526-4 0  9996
2 43077  86.4010 346.9186 0002418  87.2607 272.8865 14.34219334 65210
0 IRIDIUM 153
1 43078U 17083J   19081.55555507  .00000100  00000-0  28533-4 0  9993
2 43078  86.3962 315.1988 0003173  75.8612 284.2936 14.34218477 66362
0 IRIDIUM 131
1 43079U 17083K   19081.52091787  .00000100  00000-0  28574-4 0  9991
2 43079  86.4015 346.8165 0002249  81.1577 278.9873 14.34217030 65187
0 IRIDIUM 144
1 43249U 18030A   19081.56189296  .00000084  00000-0  22839-4 0  9999
2 43249  86.3960 315.2037 0001688  79.4092 280.7294 14.34218367 51244
0 IRIDIUM 149
1 43250U 18030B   19081.56822714  .00000083  00000-0  22731-4 0  9990
2 43250  86.3960 315.1965 0001516  85.3605 274.7764 14.34217687 51240
0 IRIDIUM 157
1 43251U 18030C   19081.58727233  .00000086  00000-0  23741-4 0  9998
2 43251  86.3961 315.1826 0002578  92.4587 267.6904 14.34217377 51226
0 IRIDIUM 140
1 43252U 18030D   19081.18767701  .00000087  00000-0  24069-4 0  9994
2 43252  86.3962 315.3632 0001181  51.5056 308.6245 14.34218363 51221
0 IRIDIUM 145
1 43253U 18030E   19081.38429405  .00000086  00000-0  23597-4 0  9997
2 43253  86.3962 315.2647 0000909 137.2736 222.8531 14.34219178 51186
0 IRIDIUM 146
1 43254U 18030F   19081.57457315  .00000088  00000-0  24480-4 0  9994
2 43254  86.3961 315.2028 0001707  97.1190 263.0200 14.34217858 51222
0 IRIDIUM 148
1 43255U 18030G   19081.19400095  .00000083  00000-0  22523-4 0  9997
2 43255  86.3967 315.3671 0002489  89.5715 270.5766 14.34216986 51210
0 IRIDIUM 142
1 43256U 18030H   19081.58092377  .00000088  00000-0  24386-4 0  9995
2 43256  86.3959 315.1924 0002030  89.4825 270.6603 14.34218410 51220
0 IRIDIUM 150
1 43257U 18030J   19081.33989127  .00000068  00000-0  17252-4 0  9999
2 43257  86.3962 315.3242 0001973  83.3384 276.8036 14.34216080 51238
0 IRIDIUM 143
1 43258U 18030K   19081.18132982  .00000086  00000-0  23758-4 0  9990
2 43258  86.3966 315.3732 0001281  99.4688 260.6652 14.34219245 51156
0 IRIDIUM 161
1 43478U 18047C   19081.51477987  .00000080  00000-0  17845-4 0  9990
2 43478  86.4457 113.3411 0002545  86.3129 273.8362 14.43279934 43825
0 IRIDIUM 152
1 43479U 18047D   19081.57266140  .00000082  00000-0  22306-4 0  9994
2 43479  86.3930 113.1951 0002222 100.5348 259.6098 14.34219613 43581
0 IRIDIUM 147
1 43480U 18047E   19081.57900398  .00000083  00000-0  22716-4 0  9992
2 43480  86.3932 113.1527 0002548  92.1094 268.0394 14.34219183 43573
0 IRIDIUM 110
1 43481U 18047F   19081.51557629  .00000043  00000-0  83640-5 0  9992
2 43481  86.3934 113.2002 0001975  85.0462 275.0959 14.34216164 43557
0 IRIDIUM 162
1 43482U 18047G   19081.57780846  .00000089  00000-0  20432-4 0  9997
2 43482  86.4455 113.2427 0002463  82.3667 277.7814 14.43281033 43824
0 IRIDIUM 160
1 43569U 18061A   19081.53118989  .00000040  00000-0  73889-5 0  9990
2 43569  86.3927  81.5387 0002416  95.5154 264.6318 14.34218127 34457
0 IRIDIUM 166
1 43570U 18061B   19081.48678307  .00000043  00000-0  84358-5 0  9997
2 43570  86.3926  81.5442 0001981  87.4783 272.6640 14.34216930 34473
0 IRIDIUM 158
1 43571U 18061C   19081.52484616  .00000046  00000-0  93450-5 0  9997
2 43571  86.3926  81.5352 0002026  97.6570 262.4855 14.34218180 34454
0 IRIDIUM 165
1 43572U 18061D   19081.55021485  .00000043  00000-0  83901-5 0  9999
2 43572  86.3928  81.5228 0002035  95.4751 264.6677 14.34217006 34470
0 IRIDIUM 155
1 43573U 18061E   19081.51215661  .00000045  00000-0  90547-5 0  9993
2 43573  86.3925  81.5335 0002272  69.4483 290.6956 14.34216721 34442
0 IRIDIUM 154
1 43574U 18061F   19081.49312933  .00000032  00000-0  44003-5 0  9993
2 43574  86.3928  81.5500 0002497  96.1374 264.0106 14.34217049 34485
0 IRIDIUM 163
1 43575U 18061G   19081.54387006  .00000038  00000-0  64774-5 0  9996
2 43575  86.3926  81.5240 0001708 108.5872 251.5509 14.34218573 34469
0 IRIDIUM 156
1 43576U 18061H   19081.51850701  .00000042  00000-0  78071-5 0  9991
2 43576  86.3925  81.5389 0001801  85.8585 274.2817 14.34216465 34445
0 IRIDIUM 164
1 43577U 18061J   19081.49949443  .00000043  00000-0  84124-5 0  9998
2 43577  86.3927  81.5472 0002250  96.5424 263.6028 14.34217437 34492
0 IRIDIUM 159
1 43578U 18061K   19081.53752405  .00000043  00000-0  81735-5 0  9999
2 43578  86.3925  81.5236 0002345  93.9826 266.1638 14.34217177 34464
0 IRIDIUM 180
1 43922U 19002A   19081.32771362  .00000063  00000-0  15604-4 0  9991
2 43922  86.4017  18.4273 0002792 116.1307 244.0176 14.34219344 10080
0 IRIDIUM 176
1 43923U 19002B   19081.35107817  .00000129  00000-0  16478-4 0  9996
2 43923  86.6150  18.4329 0002083  85.3669 274.7786 14.72248994 10266
0 IRIDIUM 168
1 43924U 19002C   19081.32138827  .00000055  00000-0  12749-4 0  9994
2 43924  86.4020  18.4325 0002383  93.7524 266.3944 14.34217467 10029
0 IRIDIUM 173
1 43925U 19002D   19081.37847098  .00000065  00000-0  16108-4 0  9991
2 43925  86.4016  18.4048 0002234  90.7998 269.3454 14.34217755 10023
0 IRIDIUM 169
1 43926U 19002E   19081.36812020  .00000052  00000-0  10973-4 0  9998
2 43926  87.4083  23.5564 0004626  60.3757 299.7902 14.38613734 10129
0 IRIDIUM 172
1 43927U 19002F   19081.37210816  .00000065  00000-0  16037-4 0  9996
2 43927  86.4016  18.4070 0002299  95.5475 264.5983 14.34219445 10026
0 IRIDIUM 175
1 43928U 19002G   19081.34488103  .00000127  00000-0  16264-4 0  9991
2 43928  86.6134  18.4166 0003363  72.0106 288.1477 14.72259094 10251
0 IRIDIUM 171
1 43929U 19002H   19081.35309742  .00000065  00000-0  16227-4 0  9994
2 43929  86.4026  18.4274 0002357  92.1060 268.0406 14.34218539 10014
0 IRIDIUM 170
1 43930U 19002J   19081.35725141  .00000136  00000-0  17706-4 0  9993
2 43930  86.6150  18.4380 0002343  74.2147 285.9328 14.72249104 10279
0 IRIDIUM 167
1 43931U 19002K   19081.34675535  .00000052  00000-0  11430-4 0  9999
2 43931  86.4017  18.4169 0002782 111.4832 248.6661 14.34217657 10011
